{
  "norad_id": 41330,
  "name": "COSMOS 2514 [GLONASS-M]",
  "history": [
    {
      "epoch": "2026-03-28T02:28:40.623744Z",
      "apogee_km": 19152.838258670432,
      "perigee_km": 19106.842274063725,
      "latitude_deg": -9.925086645211805e-07,
      "longitude_deg": 93.1084614215638,
      "height_km": 19151.540506068257,
      "semi_major_axis_km": 25507.977266367077,
      "eccentricity": 0.0009016,
      "inclination_deg": 65.0686,
      "raan_deg": 315.7909,
      "arg_perigee_deg": 203.3662,
      "mean_anomaly_deg": 156.6472,
      "mean_motion_rev_day": 2.13102591
    }
  ]
}